COMMENT,ORIGINATOR,NORAD_CAT_ID,OBJECT_NAME,OBJECT_TYPE,CLASSIFICATION_TYPE,INTLDES,EPOCH,EPOCH_MICROSECONDS,MEAN_MOTION,ECCENTRICITY,INCLINATION,RA_OF_ASC_NODE,ARG_OF_PERICENTER,MEAN_ANOMALY,EPHEMERIS_TYPE,ELEMENT_SET_NO,REV_AT_EPOCH,BSTAR,MEAN_MOTION_DOT,MEAN_MOTION_DDOT,FILE,TLE_LINE0,TLE_LINE1,TLE_LINE2,OBJECT_ID,OBJECT_NUMBER,SEMIMAJOR_AXIS,PERIOD,APOGEE,PERIGEE,DECAYED
"GENERATED VIA SPACETRACK.ORG API","18 SPCS","55100","SPACEBEE-158","PAYLOAD","U","23001CV","2024-01-11 02:53:17","718144","15.30813178","0.0012465","97.4498","75.4852","357.2621","2.855","0","999","5678","0.0013343","0.00039911","0","4158805","0 SPACEBEE-158","1 55100U 23001CV  24011.12034396  .00039911  00000-0  13343-2 0  9992","2 55100  97.4498  75.4852 0012465 357.2621   2.8550 15.30813178 56782","2023-001CV","55100","6851.522","94.068","481.927","464.846","0"
"GENERATED VIA SPACETRACK.ORG API","18 SPCS","55100","SPACEBEE-158","PAYLOAD","U","23001CV","2024-01-11 02:53:17","718144","15.30813178","0.0012465","97.4498","75.4852","357.2621","2.855","0","999","5678","0.0013343","0.00039911","0","4159265","0 SPACEBEE-158","1 55100U 23001CV  24011.12034396  .00039911  00000-0  13343-2 0  9992","2 55100  97.4498  75.4852 0012465 357.2621   2.8550 15.30813178 56782","2023-001CV","55100","6851.522","94.068","481.927","464.846","0"
"GENERATED VIA SPACETRACK.ORG API","18 SPCS","55100","SPACEBEE-158","PAYLOAD","U","23001CV","2024-01-11 17:00:26","72640","15.30863064","0.0012361","97.4494","76.0758","355.3205","4.7918","0","999","5687","0.0013587","0.00040708","0","4159545","0 SPACEBEE-158","1 55100U 23001CV  24011.70863510  .00040708  00000-0  13587-2 0  9990","2 55100  97.4494  76.0758 0012361 355.3205   4.7918 15.30863064 56870","2023-001CV","55100","6851.373","94.065","481.707","464.769","0"
"GENERATED VIA SPACETRACK.ORG API","18 SPCS","55100","SPACEBEE-158","PAYLOAD","U","23001CV","2024-01-12 03:59:18","117024","15.3090066","0.0012339","97.4491","76.5349","353.7643","6.3442","0","999","5694","0.0013427","0.00040272","0","4159766","0 SPACEBEE-158","1 55100U 23001CV  24012.16618191  .00040272  00000-0  13427-2 0  9993","2 55100  97.4491  76.5349 0012339 353.7643   6.3442 15.30900660 56943","2023-001CV","55100","6851.261","94.062","481.580","464.672","0"
"GENERATED VIA SPACETRACK.ORG API","18 SPCS","55100","SPACEBEE-158","PAYLOAD","U","23001CV","2024-01-12 03:59:18","117024","15.3090066","0.0012339","97.4491","76.5349","353.7643","6.3442","0","999","5694","0.0013427","0.00040272","0","4160109","0 SPACEBEE-158","1 55100U 23001CV  24012.16618191  .00040272  00000-0  13427-2 0  9993","2 55100  97.4491  76.5349 0012339 353.7643   6.3442 15.30900660 56943","2023-001CV","55100","6851.261","94.062","481.580","464.672","0"
"GENERATED VIA SPACETRACK.ORG API","18 SPCS","55100","SPACEBEE-158","PAYLOAD","U","23001CV","2024-01-12 18:06:23","598720","15.30947144","0.0012268","97.4487","77.1254","351.6632","8.4403","0","999","5703","0.0012519","0.00037583","0","4160399","0 SPACEBEE-158","1 55100U 23001CV  24012.75443980  .00037583  00000-0  12519-2 0  9992","2 55100  97.4487  77.1254 0012268 351.6632   8.4403 15.30947144 57035","2023-001CV","55100","6851.122","94.059","481.392","464.582","0"
"GENERATED VIA SPACETRACK.ORG API","18 SPCS","55100","SPACEBEE-158","PAYLOAD","U","23001CV","2024-01-13 03:31:06","420576","15.30978434","0.0012215","97.4485","77.519","350.1254","9.9745","0","999","5709","0.0013047","0.00039217","0","4160970","0 SPACEBEE-158","1 55100U 23001CV  24013.14660209  .00039217  00000-0  13047-2 0  9994","2 55100  97.4485  77.5190 0012215 350.1254   9.9745 15.30978434 57099","2023-001CV","55100","6851.029","94.057","481.262","464.525","0"
"GENERATED VIA SPACETRACK.ORG API","18 SPCS","55100","SPACEBEE-158","PAYLOAD","U","23001CV","2024-01-13 16:04:02","381664","15.31021841","0.0012102","97.4481","78.0437","348.2414","11.8543","0","999","5717","0.0013123","0.00039499","0","4161189","0 SPACEBEE-158","1 55100U 23001CV  24013.66947201  .00039499  00000-0  13123-2 0  9998","2 55100  97.4481  78.0437 0012102 348.2414  11.8543 15.31021841 57175","2023-001CV","55100","6850.899","94.055","481.055","464.473","0"
"GENERATED VIA SPACETRACK.ORG API","18 SPCS","55100","SPACEBEE-158","PAYLOAD","U","23001CV","2024-01-14 03:02:50","341920","15.31060158","0.0012084","97.4476","78.5026","346.5751","13.5167","0","999","5724","0.0013838","0.00041716","0","4161833","0 SPACEBEE-158","1 55100U 23001CV  24014.12697155  .00041716  00000-0  13838-2 0  9998","2 55100  97.4476  78.5026 0012084 346.5751  13.5167 15.31060158 57245","2023-001CV","55100","6850.785","94.052","480.928","464.372","0"
"GENERATED VIA SPACETRACK.ORG API","18 SPCS","55100","SPACEBEE-158","PAYLOAD","U","23001CV","2024-01-14 17:09:50","461632","15.311155","0.0012061","97.4477","79.093","344.5398","15.5473","0","999","5733","0.0015502","0.00046853","0","4162046","0 SPACEBEE-158","1 55100U 23001CV  24014.71516738  .00046853  00000-0  15502-2 0  9997","2 55100  97.4477  79.0930 0012061 344.5398  15.5473 15.31115500 57330","2023-001CV","55100","6850.620","94.049","480.747","464.222","0"
"GENERATED VIA SPACETRACK.ORG API","18 SPCS","55100","SPACEBEE-158","PAYLOAD","U","23001CV","2024-01-14 17:09:50","461632","15.311155","0.0012061","97.4477","79.093","344.5398","15.5473","0","999","5733","0.0015502","0.00046853","0","4162100","0 SPACEBEE-158","1 55100U 23001CV  24014.71516738  .00046853  00000-0  15502-2 0  9997","2 55100  97.4477  79.0930 0012061 344.5398  15.5473 15.31115500 57330","2023-001CV","55100","6850.620","94.049","480.747","464.222","0"
"GENERATED VIA SPACETRACK.ORG API","18 SPCS","55100","SPACEBEE-158","PAYLOAD","U","23001CV","2024-01-15 16:41:26","466144","15.31208936","0.0011989","97.4478","80.0769","341.2328","18.8469","0","999","5748","0.0014794","0.00044827","0","4162957","0 SPACEBEE-158","1 55100U 23001CV  24015.69544521  .00044827  00000-0  14794-2 0  9997","2 55100  97.4478  80.0769 0011989 341.2328  18.8469 15.31208936 57481","2023-001CV","55100","6850.341","94.043","480.419","463.993","0"
"GENERATED VIA SPACETRACK.ORG API","18 SPCS","55100","SPACEBEE-158","PAYLOAD","U","23001CV","2024-01-16 03:40:09","570720","15.31248934","0.0011942","97.4476","80.5367","339.513","20.563","0","999","5755","0.0014463","0.0004387","0","4163182","0 SPACEBEE-158","1 55100U 23001CV  24016.15288855  .00043870  00000-0  14463-2 0  9994","2 55100  97.4476  80.5367 0011942 339.5130  20.5630 15.31248934 57558","2023-001CV","55100","6850.222","94.041","480.267","463.906","0"
"GENERATED VIA SPACETRACK.ORG API","18 SPCS","55100","SPACEBEE-158","PAYLOAD","U","23001CV","2024-01-16 14:38:51","572832","15.31289634","0.0011943","97.448","80.9956","337.7273","22.3447","0","999","5762","0.0013732","0.0004169","0","4163580","0 SPACEBEE-158","1 55100U 23001CV  24016.61031913  .00041690  00000-0  13732-2 0  9992","2 55100  97.4480  80.9956 0011943 337.7273  22.3447 15.31289634 57626","2023-001CV","55100","6850.101","94.038","480.147","463.784","0"
"GENERATED VIA SPACETRACK.ORG API","18 SPCS","55100","SPACEBEE-158","PAYLOAD","U","23001CV","2024-01-16 17:47:03","413472","15.3129919","0.0011947","97.4479","81.127","337.2107","22.8602","0","999","5764","0.0013209","0.00040103","0","4163878","0 SPACEBEE-158","1 55100U 23001CV  24016.74101173  .00040103  00000-0  13209-2 0  9999","2 55100  97.4479  81.1270 0011947 337.2107  22.8602 15.31299190 57649","2023-001CV","55100","6850.072","94.038","480.121","463.753","0"
"GENERATED VIA SPACETRACK.ORG API","18 SPCS","55100","SPACEBEE-158","PAYLOAD","U","23001CV","2024-01-17 03:11:38","359968","15.31336487","0.0011992","97.4475","81.5213","335.9281","24.1398","0","999","5770","0.0014261","0.00043372","0","4164412","0 SPACEBEE-158","1 55100U 23001CV  24017.13308287  .00043372  00000-0  14261-2 0  9998","2 55100  97.4475  81.5213 0011992 335.9281  24.1398 15.31336487 57709","2023-001CV","55100","6849.961","94.036","480.040","463.611","0"
"GENERATED VIA SPACETRACK.ORG API","18 SPCS","55100","SPACEBEE-158","PAYLOAD","U","23001CV","2024-01-17 17:18:29","405088","15.31385988","0.0011966","97.4475","82.1121","333.5695","26.4935","0","999","5779","0.0013875","0.00042254","0","4164591","0 SPACEBEE-158","1 55100U 23001CV  24017.72117367  .00042254  00000-0  13875-2 0  9998","2 55100  97.4475  82.1121 0011966 333.5695  26.4935 15.31385988 57799","2023-001CV","55100","6849.813","94.032","479.875","463.482","0"
"GENERATED VIA SPACETRACK.ORG API","18 SPCS","55100","SPACEBEE-158","PAYLOAD","U","23001CV","2024-01-17 17:18:29","405088","15.31385988","0.0011966","97.4475","82.1121","333.5695","26.4935","0","999","5779","0.0013875","0.00042254","0","4164693","0 SPACEBEE-158","1 55100U 23001CV  24017.72117367  .00042254  00000-0  13875-2 0  9998","2 55100  97.4475  82.1121 0011966 333.5695  26.4935 15.31385988 57799","2023-001CV","55100","6849.813","94.032","479.875","463.482","0"
"GENERATED VIA SPACETRACK.ORG API","18 SPCS","55100","SPACEBEE-158","PAYLOAD","U","23001CV","2024-01-18 02:43:02","538912","15.31418332","0.0011831","97.4478","82.5062","332.2811","27.7799","0","999","5785","0.0013737","0.00041871","0","4165274","0 SPACEBEE-158","1 55100U 23001CV  24018.11322383  .00041871  00000-0  13737-2 0  9999","2 55100  97.4478  82.5062 0011831 332.2811  27.7799 15.31418332 57856","2023-001CV","55100","6849.717","94.030","479.686","463.478","0"
"GENERATED VIA SPACETRACK.ORG API","18 SPCS","55100","SPACEBEE-158","PAYLOAD","U","23001CV","2024-01-18 21:32:06","643968","15.3148386","0.0011744","97.4482","83.2937","329.4309","30.6247","0","999","5797","0.0014219","0.00043439","0","4165541","0 SPACEBEE-158","1 55100U 23001CV  24018.89729912  .00043439  00000-0  14219-2 0  9991","2 55100  97.4482  83.2937 0011744 329.4309  30.6247 15.31483860 57975","2023-001CV","55100","6849.521","94.026","479.430","463.342","0"
